[{"OBJECT_NAME":"METEOR-M2 4","OBJECT_ID":"2024-039A","EPOCH":"2026-03-10T00:01:13.262016","MEAN_MOTION":14.22417348,"ECCENTRICITY":0.0008181,"INCLINATION":98.6907,"RA_OF_ASC_NODE":29.6041,"ARG_OF_PERICENTER":95.5481,"MEAN_ANOMALY":264.6631,"EPHEMERIS_TYPE":0,"CLASSIFICATION_TYPE":"U","NORAD_CAT_ID":59051,"ELEMENT_SET_NO":999,"REV_AT_EPOCH":10516,"BSTAR":5.4288673e-5,"MEAN_MOTION_DOT":7.7e-7,"MEAN_MOTION_DDOT":0},{"OBJECT_NAME":"IONOSFERA-M 3","OBJECT_ID":"2025-155A","EPOCH":"2026-03-09T23:55:45.856992","MEAN_MOTION":14.2146666,"ECCENTRICITY":0.00021277,"INCLINATION":98.5924,"RA_OF_ASC_NODE":33.457,"ARG_OF_PERICENTER":117.7739,"MEAN_ANOMALY":242.3654,"EPHEMERIS_TYPE":0,"CLASSIFICATION_TYPE":"U","NORAD_CAT_ID":64876,"ELEMENT_SET_NO":999,"REV_AT_EPOCH":3231,"BSTAR":7.6669026e-5,"MEAN_MOTION_DOT":1.25e-6,"MEAN_MOTION_DDOT":0}]
