METEOR M2-4
1 59051U 24039A   26069.00084794  .00000077  00000-0  54289-4 0  9999
2 59051  98.6907  29.6041 0008181  95.5481 264.6631 14.22417348105160
IONOSFERA-M 03
1 64876U 25155A   26068.99705853  .00000125  00000-0  76669-4 0  9993
2 64876  98.5924  33.4570 0002128 117.7739 242.3654 14.21466660 32311
